{"type":"FeatureCollection","features":[{"type":"Feature","id":"west-cottage-a","properties":{"render_height":14.1,"render_min_height":0,"building":"house","townStyle":"house","townPalette":1,"roofHeight":4.5,"townRotation":0},"geometry":{"type":"Polygon","coordinates":[[[106.70577508666602,10.79292400202915],[106.70599456268337,10.79292400202915],[106.70599456268337,10.792735357595298],[106.70577508666602,10.792735357595298],[106.70577508666602,10.79292400202915]]]}},{"type":"Feature","id":"west-cottage-b","properties":{"render_height":10.2,"render_min_height":0,"building":"house","townStyle":"house","townPalette":2,"roofHeight":3.4,"townRotation":0},"geometry":{"type":"Polygon","coordinates":[[[106.70622318353477,10.792932985094467],[106.70642436988402,10.792932985094467],[106.70642436988402,10.792762306807367],[106.70622318353477,10.792762306807367],[106.70622318353477,10.792932985094467]]]}},{"type":"Feature","id":"west-cottage-c","properties":{"render_height":14.1,"render_min_height":0,"building":"house","townStyle":"house","townPalette":1,"roofHeight":4.5,"townRotation":0},"geometry":{"type":"Polygon","coordinates":[[[106.70667128040353,10.792932985094467],[106.7069273357571,10.792932985094467],[106.7069273357571,10.792726374524053],[106.70667128040353,10.792726374524053],[106.70667128040353,10.792932985094467]]]}},{"type":"Feature","id":"west-cottage-d","properties":{"render_height":10.2,"render_min_height":0,"building":"house","townStyle":"house","townPalette":4,"roofHeight":3.4,"townRotation":0},"geometry":{"type":"Polygon","coordinates":[[[106.70735257054072,10.793269849850377],[106.70756290172402,10.793269849850377],[106.70756290172402,10.793090188694222],[106.70735257054072,10.793090188694222],[106.70735257054072,10.793269849850377]]]}},{"type":"Feature","id":"west-cottage-e","properties":{"render_height":10.2,"render_min_height":0,"building":"house","townStyle":"house","townPalette":2,"roofHeight":3.4,"townRotation":0},"geometry":{"type":"Polygon","coordinates":[[[106.70792869508627,10.793503409192827],[106.70815731593767,10.793503409192827],[106.70815731593767,10.793287815960094],[106.70792869508627,10.793287815960094],[106.70792869508627,10.793503409192827]]]}},{"type":"Feature","id":"west-cottage-f","properties":{"render_height":10.2,"render_min_height":0,"building":"house","townStyle":"house","townPalette":0,"roofHeight":3.4,"townRotation":3.141592653589793},"geometry":{"type":"Polygon","coordinates":[[[106.70569735557655,10.792151457406737],[106.70594426609607,10.792151457406737],[106.70594426609607,10.791944846299103],[106.70569735557655,10.791944846299103],[106.70569735557655,10.792151457406737]]]}},{"type":"Feature","id":"west-cottage-g","properties":{"render_height":14.1,"render_min_height":0,"building":"house","townStyle":"house","townPalette":1,"roofHeight":4.5,"townRotation":3.141592653589793},"geometry":{"type":"Polygon","coordinates":[[[106.7063237767094,10.792146965862432],[106.70654325272675,10.792146965862432],[106.70654325272675,10.791967304035076],[106.7063237767094,10.791967304035076],[106.7063237767094,10.792146965862432]]]}},{"type":"Feature","id":"village-bakery","properties":{"render_height":12.5,"render_min_height":0,"building":"retail","townStyle":"shop","townPalette":3,"roofHeight":4.5,"townRotation":3.141592653589793},"geometry":{"type":"Polygon","coordinates":[[[106.70800185375872,10.789133124501081],[106.70824876427822,10.789133124501081],[106.70824876427822,10.788926511319017],[106.70800185375872,10.788926511319017],[106.70800185375872,10.789133124501081]]]}},{"type":"Feature","id":"village-grocer","properties":{"render_height":12.5,"render_min_height":0,"building":"retail","townStyle":"shop","townPalette":1,"roofHeight":4.5,"townRotation":3.141592653589793},"geometry":{"type":"Polygon","coordinates":[[[106.70847738512964,10.789079225423793],[106.70870600598104,10.789079225423793],[106.70870600598104,10.788890578577211],[106.70847738512964,10.788890578577211],[106.70847738512964,10.789079225423793]]]}},{"type":"Feature","id":"village-cafe","properties":{"render_height":11.4,"render_min_height":0,"building":"retail","townStyle":"shop","townPalette":4,"roofHeight":3.4,"townRotation":3.141592653589793},"geometry":{"type":"Polygon","coordinates":[[[106.70892090958137,10.789146599268905],[106.7091220959306,10.789146599268905],[106.7091220959306,10.78896693564841],[106.70892090958137,10.78896693564841],[106.70892090958137,10.789146599268905]]]}},{"type":"Feature","id":"south-cottage-a","properties":{"render_height":10.2,"render_min_height":0,"building":"house","townStyle":"house","townPalette":2,"roofHeight":3.4,"townRotation":0},"geometry":{"type":"Polygon","coordinates":[[[106.70783267432867,10.787718270520317],[106.70807044001413,10.787718270520317],[106.70807044001413,10.787520639593097],[106.70783267432867,10.787520639593097],[106.70783267432867,10.787718270520317]]]}},{"type":"Feature","id":"south-cottage-b","properties":{"render_height":14.1,"render_min_height":0,"building":"house","townStyle":"house","townPalette":1,"roofHeight":4.5,"townRotation":0},"geometry":{"type":"Polygon","coordinates":[[[106.70843623337637,10.787610471848838],[106.70865570939372,10.787610471848838],[106.70865570939372,10.78743080731052],[106.70843623337637,10.78743080731052],[106.70843623337637,10.787610471848838]]]}},{"type":"Feature","id":"south-cottage-c","properties":{"render_height":10.2,"render_min_height":0,"building":"house","townStyle":"house","townPalette":0,"roofHeight":3.4,"townRotation":0},"geometry":{"type":"Polygon","coordinates":[[[106.70898035100272,10.787709287299176],[106.70922726152224,10.787709287299176],[106.70922726152224,10.787493689911138],[106.70898035100272,10.787493689911138],[106.70898035100272,10.787709287299176]]]}},{"type":"Feature","id":"south-cottage-d","properties":{"render_height":10.2,"render_min_height":0,"building":"house","townStyle":"house","townPalette":4,"roofHeight":3.4,"townRotation":3.141592653589793},"geometry":{"type":"Polygon","coordinates":[[[106.70823961944417,10.786878338182639],[106.70844995062747,10.786878338182639],[106.70844995062747,10.786689689955308],[106.70823961944417,10.786689689955308],[106.70823961944417,10.786878338182639]]]}},{"type":"Feature","id":"north-cottage-a","properties":{"render_height":10.2,"render_min_height":0,"building":"house","townStyle":"house","townPalette":2,"roofHeight":3.4,"townRotation":0},"geometry":{"type":"Polygon","coordinates":[[[106.70931413744577,10.793597731183516],[106.70953361346312,10.793597731183516],[106.70953361346312,10.79339112107007],[106.70931413744577,10.79339112107007],[106.70931413744577,10.793597731183516]]]}},{"type":"Feature","id":"north-cottage-b","properties":{"render_height":14.1,"render_min_height":0,"building":"house","townStyle":"house","townPalette":1,"roofHeight":4.5,"townRotation":0},"geometry":{"type":"Polygon","coordinates":[[[106.70975308948047,10.793471968522688],[106.71000914483405,10.793471968522688],[106.71000914483405,10.793283324432752],[106.70975308948047,10.793283324432752],[106.70975308948047,10.793471968522688]]]}},{"type":"Feature","id":"quay-cottage","properties":{"render_height":10.2,"render_min_height":0,"building":"house","townStyle":"house","townPalette":2,"roofHeight":3.4,"townRotation":3.141592653589793},"geometry":{"type":"Polygon","coordinates":[[[106.71304980215774,10.786905287919744],[106.71327842300914,10.786905287919744],[106.71327842300914,10.786716639709319],[106.71304980215774,10.786716639709319],[106.71304980215774,10.786905287919744]]]}},{"type":"Feature","id":"quay-cafe","properties":{"render_height":12.5,"render_min_height":0,"building":"retail","townStyle":"shop","townPalette":3,"roofHeight":4.5,"townRotation":3.141592653589793},"geometry":{"type":"Polygon","coordinates":[[[106.71344303002216,10.786869354936409],[106.71370823020979,10.786869354936409],[106.71370823020979,10.786662740198885],[106.71344303002216,10.786662740198885],[106.71344303002216,10.786869354936409]]]}},{"type":"Feature","id":"riverside-shop","properties":{"render_height":12.5,"render_min_height":0,"building":"retail","townStyle":"shop","townPalette":1,"roofHeight":4.5,"townRotation":0},"geometry":{"type":"Polygon","coordinates":[[[106.71319611950264,10.79064678630882],[106.71344303002216,10.79064678630882],[106.71344303002216,10.790449157306556],[106.71319611950264,10.790449157306556],[106.71319611950264,10.79064678630882]]]}}]}