{"type":"FeatureCollection","features":[{"type":"Feature","id":"tree-0","geometry":{"type":"Point","coordinates":[106.70572936249575,10.792968917353104]},"properties":{"height":8,"radius":4.2,"seed":0,"representation":"illustrative-planting","parkId":"marlow-green"}},{"type":"Feature","id":"tree-1","geometry":{"type":"Point","coordinates":[106.7061774593645,10.79297790041708]},"properties":{"height":9,"radius":4.7,"seed":17,"representation":"illustrative-planting","parkId":"marlow-green"}},{"type":"Feature","id":"tree-2","geometry":{"type":"Point","coordinates":[106.70662555623325,10.79297790041708]},"properties":{"height":10,"radius":5.2,"seed":34,"representation":"illustrative-planting","parkId":"marlow-green"}},{"type":"Feature","id":"tree-3","geometry":{"type":"Point","coordinates":[106.70730684637044,10.793314765122645]},"properties":{"height":8,"radius":5.7,"seed":51,"representation":"illustrative-planting","parkId":"marlow-green"}},{"type":"Feature","id":"tree-4","geometry":{"type":"Point","coordinates":[106.70788297091597,10.793548324430189]},"properties":{"height":9,"radius":4.2,"seed":68,"representation":"illustrative-planting","parkId":"marlow-green"}},{"type":"Feature","id":"tree-5","geometry":{"type":"Point","coordinates":[106.70565163140627,10.79189993082214]},"properties":{"height":10,"radius":4.7,"seed":85,"representation":"illustrative-planting","parkId":"marlow-green"}},{"type":"Feature","id":"tree-6","geometry":{"type":"Point","coordinates":[106.70627805253912,10.791922388561446]},"properties":{"height":8,"radius":5.2,"seed":102,"representation":"illustrative-planting","parkId":"marlow-green"}},{"type":"Feature","id":"tree-7","geometry":{"type":"Point","coordinates":[106.70795612958842,10.788881595391077]},"properties":{"height":9,"radius":5.7,"seed":119,"representation":"illustrative-planting","parkId":"marlow-green"}},{"type":"Feature","id":"tree-8","geometry":{"type":"Point","coordinates":[106.70843166095935,10.788845662643903]},"properties":{"height":10,"radius":4.2,"seed":136,"representation":"illustrative-planting","parkId":"marlow-green"}},{"type":"Feature","id":"tree-9","geometry":{"type":"Point","coordinates":[106.70887518541107,10.78892201972653]},"properties":{"height":8,"radius":4.7,"seed":153,"representation":"illustrative-planting","parkId":"marlow-green"}},{"type":"Feature","id":"tree-10","geometry":{"type":"Point","coordinates":[106.7077869501584,10.78776318662203]},"properties":{"height":9,"radius":5.2,"seed":170,"representation":"illustrative-planting","parkId":"marlow-green"}},{"type":"Feature","id":"tree-11","geometry":{"type":"Point","coordinates":[106.7083905092061,10.78765538796666]},"properties":{"height":10,"radius":5.7,"seed":187,"representation":"illustrative-planting","parkId":"marlow-green"}},{"type":"Feature","id":"tree-12","geometry":{"type":"Point","coordinates":[106.70893462683244,10.787754203402216]},"properties":{"height":8,"radius":4.2,"seed":204,"representation":"illustrative-planting","parkId":"marlow-green"}},{"type":"Feature","id":"tree-13","geometry":{"type":"Point","coordinates":[106.7081938952739,10.786644773693254]},"properties":{"height":9,"radius":4.7,"seed":221,"representation":"illustrative-planting","parkId":"marlow-green"}},{"type":"Feature","id":"tree-14","geometry":{"type":"Point","coordinates":[106.7092684132755,10.79364264640678]},"properties":{"height":10,"radius":5.2,"seed":238,"representation":"illustrative-planting","parkId":"marlow-green"}},{"type":"Feature","id":"tree-15","geometry":{"type":"Point","coordinates":[106.7097073653102,10.793516883764749]},"properties":{"height":8,"radius":5.7,"seed":255,"representation":"illustrative-planting","parkId":"marlow-green"}},{"type":"Feature","id":"tree-16","geometry":{"type":"Point","coordinates":[106.71300407798746,10.786671723451288]},"properties":{"height":9,"radius":4.2,"seed":272,"representation":"illustrative-planting","parkId":"marlow-green"}},{"type":"Feature","id":"tree-17","geometry":{"type":"Point","coordinates":[106.71339730585187,10.786617823932804]},"properties":{"height":10,"radius":4.7,"seed":289,"representation":"illustrative-planting","parkId":"marlow-green"}},{"type":"Feature","id":"tree-18","geometry":{"type":"Point","coordinates":[106.71315039533236,10.790691701973046]},"properties":{"height":8,"radius":5.2,"seed":306,"representation":"illustrative-planting","parkId":"marlow-green"}},{"type":"Feature","id":"tree-19","geometry":{"type":"Point","coordinates":[106.70716510144257,10.791715777296359]},"properties":{"height":12,"radius":5.7,"seed":323,"representation":"illustrative-planting","parkId":"marlow-green"}},{"type":"Feature","id":"tree-20","geometry":{"type":"Point","coordinates":[106.70711937727229,10.79149119967324]},"properties":{"height":11,"radius":4.2,"seed":340,"representation":"illustrative-planting","parkId":"marlow-green"}},{"type":"Feature","id":"tree-21","geometry":{"type":"Point","coordinates":[106.70972565497831,10.791715777296359]},"properties":{"height":11,"radius":4.7,"seed":357,"representation":"illustrative-planting","parkId":"marlow-green"}},{"type":"Feature","id":"tree-22","geometry":{"type":"Point","coordinates":[106.70967993080802,10.79149119967324]},"properties":{"height":10,"radius":5.2,"seed":374,"representation":"illustrative-planting","parkId":"marlow-green"}},{"type":"Feature","id":"tree-23","geometry":{"type":"Point","coordinates":[106.70716510144257,10.788796255109515]},"properties":{"height":13,"radius":5.7,"seed":391,"representation":"illustrative-planting","parkId":"marlow-green"}},{"type":"Feature","id":"tree-24","geometry":{"type":"Point","coordinates":[106.70711937727229,10.78857167530548]},"properties":{"height":9,"radius":4.2,"seed":408,"representation":"illustrative-planting","parkId":"marlow-green"}},{"type":"Feature","id":"tree-25","geometry":{"type":"Point","coordinates":[106.70972565497831,10.788796255109515]},"properties":{"height":12,"radius":4.7,"seed":425,"representation":"illustrative-planting","parkId":"marlow-green"}},{"type":"Feature","id":"tree-26","geometry":{"type":"Point","coordinates":[106.70967993080802,10.78857167530548]},"properties":{"height":11,"radius":5.2,"seed":442,"representation":"illustrative-planting","parkId":"marlow-green"}},{"type":"Feature","id":"tree-27","geometry":{"type":"Point","coordinates":[106.71224048434377,10.788796255109515]},"properties":{"height":11,"radius":5.7,"seed":459,"representation":"illustrative-planting","parkId":"marlow-green"}},{"type":"Feature","id":"tree-28","geometry":{"type":"Point","coordinates":[106.71219476017349,10.78857167530548]},"properties":{"height":10,"radius":4.2,"seed":476,"representation":"illustrative-planting","parkId":"marlow-green"}},{"type":"Feature","id":"tree-29","geometry":{"type":"Point","coordinates":[106.71224048434377,10.791715777296359]},"properties":{"height":13,"radius":4.7,"seed":493,"representation":"illustrative-planting","parkId":"marlow-green"}},{"type":"Feature","id":"tree-30","geometry":{"type":"Point","coordinates":[106.71219476017349,10.79149119967324]},"properties":{"height":9,"radius":5.2,"seed":510,"representation":"illustrative-planting","parkId":"marlow-green"}},{"type":"Feature","id":"tree-31","geometry":{"type":"Point","coordinates":[106.70873871039166,10.790278477609121]},"properties":{"height":12,"radius":5.7,"seed":527,"representation":"illustrative-planting","parkId":"marlow-green"}},{"type":"Feature","id":"tree-32","geometry":{"type":"Point","coordinates":[106.70852898345517,10.7902115212404]},"properties":{"height":14,"radius":4.2,"seed":544,"representation":"illustrative-planting","parkId":"marlow-green"}},{"type":"Feature","id":"tree-33","geometry":{"type":"Point","coordinates":[106.70866418268638,10.790405841798183]},"properties":{"height":13,"radius":4.7,"seed":561,"representation":"illustrative-planting","parkId":"marlow-green"}},{"type":"Feature","id":"tree-34","geometry":{"type":"Point","coordinates":[106.70879545734988,10.790158709270555]},"properties":{"height":12,"radius":5.2,"seed":578,"representation":"illustrative-planting","parkId":"marlow-green"}},{"type":"Feature","id":"tree-35","geometry":{"type":"Point","coordinates":[106.70837416933085,10.790307699794063]},"properties":{"height":14,"radius":5.7,"seed":595,"representation":"illustrative-planting","parkId":"marlow-green"}},{"type":"Feature","id":"tree-36","geometry":{"type":"Point","coordinates":[106.70890363428776,10.790381013798985]},"properties":{"height":13,"radius":4.2,"seed":612,"representation":"illustrative-planting","parkId":"marlow-green"}},{"type":"Feature","id":"tree-37","geometry":{"type":"Point","coordinates":[106.70856217024779,10.79007911500987]},"properties":{"height":12,"radius":4.7,"seed":629,"representation":"illustrative-planting","parkId":"marlow-green"}},{"type":"Feature","id":"tree-38","geometry":{"type":"Point","coordinates":[106.70847994468657,10.79047427689828]},"properties":{"height":14,"radius":5.2,"seed":646,"representation":"illustrative-planting","parkId":"marlow-green"}},{"type":"Feature","id":"tree-39","geometry":{"type":"Point","coordinates":[106.70900443177374,10.790199328047994]},"properties":{"height":13,"radius":5.7,"seed":663,"representation":"illustrative-planting","parkId":"marlow-green"}},{"type":"Feature","id":"tree-40","geometry":{"type":"Point","coordinates":[106.70827663962966,10.790181403870095]},"properties":{"height":12,"radius":4.2,"seed":680,"representation":"illustrative-planting","parkId":"marlow-green"}},{"type":"Feature","id":"tree-41","geometry":{"type":"Point","coordinates":[106.70882184777953,10.790516818894874]},"properties":{"height":14,"radius":4.7,"seed":697,"representation":"illustrative-planting","parkId":"marlow-green"}},{"type":"Feature","id":"tree-42","geometry":{"type":"Point","coordinates":[106.7087832830591,10.79001775846911]},"properties":{"height":13,"radius":5.2,"seed":714,"representation":"illustrative-planting","parkId":"marlow-green"}},{"type":"Feature","id":"tree-43","geometry":{"type":"Point","coordinates":[106.7082452929902,10.790418932727569]},"properties":{"height":12,"radius":5.7,"seed":731,"representation":"illustrative-planting","parkId":"marlow-green"}},{"type":"Feature","id":"tree-44","geometry":{"type":"Point","coordinates":[106.70911287662489,10.790345889086977]},"properties":{"height":14,"radius":4.2,"seed":748,"representation":"illustrative-planting","parkId":"marlow-green"}},{"type":"Feature","id":"tree-45","geometry":{"type":"Point","coordinates":[106.70836667351448,10.79002426313442]},"properties":{"height":13,"radius":4.7,"seed":765,"representation":"illustrative-planting","parkId":"marlow-green"}},{"type":"Feature","id":"tree-46","geometry":{"type":"Point","coordinates":[106.70857328850988,10.790593514276958]},"properties":{"height":12,"radius":5.2,"seed":782,"representation":"illustrative-planting","parkId":"marlow-green"}},{"type":"Feature","id":"tree-47","geometry":{"type":"Point","coordinates":[106.70556351237724,10.788643540861019]},"properties":{"height":13,"radius":5.7,"seed":799,"representation":"illustrative-planting","parkId":"marlow-green"}},{"type":"Feature","id":"tree-48","geometry":{"type":"Point","coordinates":[106.70542064412992,10.78855687872824]},"properties":{"height":12,"radius":4.2,"seed":816,"representation":"illustrative-planting","parkId":"marlow-green"}},{"type":"Feature","id":"tree-49","geometry":{"type":"Point","coordinates":[106.70551274330195,10.788808389275417]},"properties":{"height":14,"radius":4.7,"seed":833,"representation":"illustrative-planting","parkId":"marlow-green"}},{"type":"Feature","id":"tree-50","geometry":{"type":"Point","coordinates":[106.7056021690162,10.788488523793527]},"properties":{"height":13,"radius":5.2,"seed":850,"representation":"illustrative-planting","parkId":"marlow-green"}},{"type":"Feature","id":"tree-51","geometry":{"type":"Point","coordinates":[106.7053151830815,10.788681363353517]},"properties":{"height":12,"radius":5.7,"seed":867,"representation":"illustrative-planting","parkId":"marlow-green"}},{"type":"Feature","id":"tree-52","geometry":{"type":"Point","coordinates":[106.70567586031106,10.78877625421355]},"properties":{"height":14,"radius":4.2,"seed":884,"representation":"illustrative-planting","parkId":"marlow-green"}},{"type":"Feature","id":"tree-53","geometry":{"type":"Point","coordinates":[106.70544325133038,10.788385504329204]},"properties":{"height":13,"radius":4.7,"seed":901,"representation":"illustrative-planting","parkId":"marlow-green"}},{"type":"Feature","id":"tree-54","geometry":{"type":"Point","coordinates":[106.70538723839273,10.788896965324469]},"properties":{"height":12,"radius":5.2,"seed":918,"representation":"illustrative-planting","parkId":"marlow-green"}},{"type":"Feature","id":"tree-55","geometry":{"type":"Point","coordinates":[106.70574452464382,10.788541096986775]},"properties":{"height":14,"radius":5.7,"seed":935,"representation":"illustrative-planting","parkId":"marlow-green"}},{"type":"Feature","id":"tree-56","geometry":{"type":"Point","coordinates":[106.70524874479892,10.78851789758697]},"properties":{"height":13,"radius":4.2,"seed":952,"representation":"illustrative-planting","parkId":"marlow-green"}},{"type":"Feature","id":"tree-57","geometry":{"type":"Point","coordinates":[106.70562014646103,10.78895202773786]},"properties":{"height":12,"radius":4.7,"seed":969,"representation":"illustrative-planting","parkId":"marlow-green"}},{"type":"Feature","id":"tree-58","geometry":{"type":"Point","coordinates":[106.70559387575824,10.788306090080688]},"properties":{"height":14,"radius":5.2,"seed":986,"representation":"illustrative-planting","parkId":"marlow-green"}},{"type":"Feature","id":"tree-59","geometry":{"type":"Point","coordinates":[106.7052273911306,10.788825332961222]},"properties":{"height":13,"radius":5.7,"seed":1003,"representation":"illustrative-planting","parkId":"marlow-green"}},{"type":"Feature","id":"tree-60","geometry":{"type":"Point","coordinates":[106.70626843941905,10.787969800603468]},"properties":{"height":11,"radius":4.2,"seed":1020,"representation":"illustrative-planting","parkId":"marlow-green"}},{"type":"Feature","id":"tree-61","geometry":{"type":"Point","coordinates":[106.70612380765718,10.787888254783132]},"properties":{"height":13,"radius":4.7,"seed":1037,"representation":"illustrative-planting","parkId":"marlow-green"}},{"type":"Feature","id":"tree-62","geometry":{"type":"Point","coordinates":[106.70621704366845,10.788124916789544]},"properties":{"height":15,"radius":5.2,"seed":1054,"representation":"illustrative-planting","parkId":"marlow-green"}},{"type":"Feature","id":"tree-63","geometry":{"type":"Point","coordinates":[106.70630757322172,10.787823935351332]},"properties":{"height":11,"radius":5.7,"seed":1071,"representation":"illustrative-planting","parkId":"marlow-green"}},{"type":"Feature","id":"tree-64","geometry":{"type":"Point","coordinates":[106.7060170448353,10.788005390152403]},"properties":{"height":13,"radius":4.2,"seed":1088,"representation":"illustrative-planting","parkId":"marlow-green"}},{"type":"Feature","id":"tree-65","geometry":{"type":"Point","coordinates":[106.70638217413557,10.788094678899053]},"properties":{"height":15,"radius":4.7,"seed":1105,"representation":"illustrative-planting","parkId":"marlow-green"}},{"type":"Feature","id":"tree-66","geometry":{"type":"Point","coordinates":[106.70614669391284,10.787726997897913]},"properties":{"height":11,"radius":5.2,"seed":1122,"representation":"illustrative-planting","parkId":"marlow-green"}},{"type":"Feature","id":"tree-67","geometry":{"type":"Point","coordinates":[106.7041771195481,10.79315307011109]},"properties":{"height":14,"radius":5.7,"seed":1139,"representation":"illustrative-planting","parkId":"marlow-green"}},{"type":"Feature","id":"tree-68","geometry":{"type":"Point","coordinates":[106.70398437974504,10.793083479723078]},"properties":{"height":16,"radius":4.2,"seed":1156,"representation":"illustrative-planting","parkId":"marlow-green"}},{"type":"Feature","id":"tree-69","geometry":{"type":"Point","coordinates":[106.704108628321,10.793285444721517]},"properties":{"height":15,"radius":4.7,"seed":1173,"representation":"illustrative-planting","parkId":"marlow-green"}},{"type":"Feature","id":"tree-70","geometry":{"type":"Point","coordinates":[106.70422927020523,10.793028590164793]},"properties":{"height":14,"radius":5.2,"seed":1190,"representation":"illustrative-planting","parkId":"marlow-green"}},{"type":"Feature","id":"tree-71","geometry":{"type":"Point","coordinates":[106.7038421050123,10.7931834418773]},"properties":{"height":16,"radius":5.7,"seed":1207,"representation":"illustrative-planting","parkId":"marlow-green"}},{"type":"Feature","id":"tree-72","geometry":{"type":"Point","coordinates":[106.7043286851972,10.793259640005742]},"properties":{"height":15,"radius":4.2,"seed":1224,"representation":"illustrative-planting","parkId":"marlow-green"}},{"type":"Feature","id":"tree-73","geometry":{"type":"Point","coordinates":[106.70401487852588,10.792945864717103]},"properties":{"height":14,"radius":4.7,"seed":1241,"representation":"illustrative-planting","parkId":"marlow-green"}},{"type":"Feature","id":"tree-74","geometry":{"type":"Point","coordinates":[106.70393931294169,10.793356572011406]},"properties":{"height":16,"radius":5.2,"seed":1258,"representation":"illustrative-planting","parkId":"marlow-green"}},{"type":"Feature","id":"tree-75","geometry":{"type":"Point","coordinates":[106.70442131844652,10.793070806858452]},"properties":{"height":15,"radius":5.7,"seed":1275,"representation":"illustrative-planting","parkId":"marlow-green"}},{"type":"Feature","id":"tree-76","geometry":{"type":"Point","coordinates":[106.70375247486885,10.793052177555127]},"properties":{"height":14,"radius":4.2,"seed":1292,"representation":"illustrative-planting","parkId":"marlow-green"}},{"type":"Feature","id":"tree-77","geometry":{"type":"Point","coordinates":[106.70425352310426,10.793400787580577]},"properties":{"height":16,"radius":4.7,"seed":1309,"representation":"illustrative-planting","parkId":"marlow-green"}},{"type":"Feature","id":"tree-78","geometry":{"type":"Point","coordinates":[106.70421808198856,10.792882094448919]},"properties":{"height":15,"radius":5.2,"seed":1326,"representation":"illustrative-planting","parkId":"marlow-green"}},{"type":"Feature","id":"tree-79","geometry":{"type":"Point","coordinates":[106.70372366719532,10.793299050639096]},"properties":{"height":14,"radius":5.7,"seed":1343,"representation":"illustrative-planting","parkId":"marlow-green"}},{"type":"Feature","id":"tree-80","geometry":{"type":"Point","coordinates":[106.70452097965173,10.793223133511331]},"properties":{"height":16,"radius":4.2,"seed":1360,"representation":"illustrative-planting","parkId":"marlow-green"}},{"type":"Feature","id":"tree-81","geometry":{"type":"Point","coordinates":[106.7050572171926,10.793521375288583]},"properties":{"height":12,"radius":4.7,"seed":1377,"representation":"illustrative-planting","parkId":"marlow-green"}},{"type":"Feature","id":"tree-82","geometry":{"type":"Point","coordinates":[106.70488029868295,10.793460879166666]},"properties":{"height":14,"radius":5.2,"seed":1394,"representation":"illustrative-planting","parkId":"marlow-green"}},{"type":"Feature","id":"tree-83","geometry":{"type":"Point","coordinates":[106.70499434815554,10.79363645082056]},"properties":{"height":16,"radius":5.7,"seed":1411,"representation":"illustrative-planting","parkId":"marlow-green"}},{"type":"Feature","id":"tree-84","geometry":{"type":"Point","coordinates":[106.7051050869963,10.793413162730321]},"properties":{"height":12,"radius":4.2,"seed":1428,"representation":"illustrative-planting","parkId":"marlow-green"}},{"type":"Feature","id":"tree-85","geometry":{"type":"Point","coordinates":[106.70474970275373,10.793547777988188]},"properties":{"height":14,"radius":4.7,"seed":1445,"representation":"illustrative-planting","parkId":"marlow-green"}},{"type":"Feature","id":"tree-86","geometry":{"type":"Point","coordinates":[106.70519634138142,10.793614018335548]},"properties":{"height":16,"radius":5.2,"seed":1462,"representation":"illustrative-planting","parkId":"marlow-green"}},{"type":"Feature","id":"tree-87","geometry":{"type":"Point","coordinates":[106.70490829393233,10.793341248079077]},"properties":{"height":12,"radius":5.7,"seed":1479,"representation":"illustrative-planting","parkId":"marlow-green"}},{"type":"Feature","id":"tree-88","geometry":{"type":"Point","coordinates":[106.70483893124583,10.79369828300319]},"properties":{"height":14,"radius":4.2,"seed":1496,"representation":"illustrative-planting","parkId":"marlow-green"}},{"type":"Feature","id":"tree-89","geometry":{"type":"Point","coordinates":[106.70337653821913,10.792173915127277]},"properties":{"height":15,"radius":4.7,"seed":1513,"representation":"illustrative-planting","parkId":"marlow-green"}},{"type":"Feature","id":"tree-90","geometry":{"type":"Point","coordinates":[106.70325757663,10.792047205948506]},"properties":{"height":14,"radius":5.2,"seed":1530,"representation":"illustrative-planting","parkId":"marlow-green"}},{"type":"Feature","id":"tree-91","geometry":{"type":"Point","coordinates":[106.70333426451599,10.792414940849822]},"properties":{"height":16,"radius":5.7,"seed":1547,"representation":"illustrative-planting","parkId":"marlow-green"}},{"type":"Feature","id":"tree-92","geometry":{"type":"Point","coordinates":[106.70340872630352,10.791947263812323]},"properties":{"height":15,"radius":4.2,"seed":1564,"representation":"illustrative-planting","parkId":"marlow-green"}},{"type":"Feature","id":"tree-93","geometry":{"type":"Point","coordinates":[106.70316976275849,10.792229215595327]},"properties":{"height":14,"radius":4.7,"seed":1581,"representation":"illustrative-planting","parkId":"marlow-green"}},{"type":"Feature","id":"tree-94","geometry":{"type":"Point","coordinates":[106.70347008656871,10.792367956013813]},"properties":{"height":16,"radius":5.2,"seed":1598,"representation":"illustrative-planting","parkId":"marlow-green"}},{"type":"Feature","id":"tree-95","geometry":{"type":"Point","coordinates":[106.70327640088621,10.79179663845173]},"properties":{"height":15,"radius":5.7,"seed":1615,"representation":"illustrative-planting","parkId":"marlow-green"}},{"type":"Feature","id":"tree-96","geometry":{"type":"Point","coordinates":[106.70322976079508,10.792544448325753]},"properties":{"height":14,"radius":4.2,"seed":1632,"representation":"illustrative-planting","parkId":"marlow-green"}},{"type":"Feature","id":"tree-97","geometry":{"type":"Point","coordinates":[106.70352726105146,10.792024131376074]},"properties":{"height":16,"radius":4.7,"seed":1649,"representation":"illustrative-planting","parkId":"marlow-green"}},{"type":"Feature","id":"tree-98","geometry":{"type":"Point","coordinates":[106.70311444183292,10.791990211402931]},"properties":{"height":15,"radius":5.2,"seed":1666,"representation":"illustrative-planting","parkId":"marlow-green"}},{"type":"Feature","id":"tree-99","geometry":{"type":"Point","coordinates":[106.70342369551778,10.792624955341667]},"properties":{"height":14,"radius":5.7,"seed":1683,"representation":"illustrative-planting","parkId":"marlow-green"}},{"type":"Feature","id":"tree-100","geometry":{"type":"Point","coordinates":[106.70340182078628,10.791680526398737]},"properties":{"height":16,"radius":4.2,"seed":1700,"representation":"illustrative-planting","parkId":"marlow-green"}},{"type":"Feature","id":"tree-101","geometry":{"type":"Point","coordinates":[106.71088991771562,10.793647137928735]},"properties":{"height":13,"radius":4.7,"seed":1717,"representation":"illustrative-planting","parkId":"marlow-green"}},{"type":"Feature","id":"tree-102","geometry":{"type":"Point","coordinates":[106.71065443483957,10.793582662148387]},"properties":{"height":12,"radius":5.2,"seed":1734,"representation":"illustrative-planting","parkId":"marlow-green"}},{"type":"Feature","id":"tree-103","geometry":{"type":"Point","coordinates":[106.71080623748513,10.793769783552076]},"properties":{"height":14,"radius":5.7,"seed":1751,"representation":"illustrative-planting","parkId":"marlow-green"}},{"type":"Feature","id":"tree-104","geometry":{"type":"Point","coordinates":[106.71095363359854,10.793531806747938]},"properties":{"height":13,"radius":4.2,"seed":1768,"representation":"illustrative-planting","parkId":"marlow-green"}},{"type":"Feature","id":"tree-105","geometry":{"type":"Point","coordinates":[106.71048060845436,10.793675277495218]},"properties":{"height":12,"radius":4.7,"seed":1785,"representation":"illustrative-planting","parkId":"marlow-green"}},{"type":"Feature","id":"tree-106","geometry":{"type":"Point","coordinates":[106.71107509542354,10.793745875376004]},"properties":{"height":14,"radius":5.2,"seed":1802,"representation":"illustrative-planting","parkId":"marlow-green"}},{"type":"Feature","id":"tree-107","geometry":{"type":"Point","coordinates":[106.7106916972032,10.79345516128331]},"properties":{"height":13,"radius":5.7,"seed":1819,"representation":"illustrative-planting","parkId":"marlow-green"}},{"type":"Feature","id":"tree-108","geometry":{"type":"Point","coordinates":[106.71059937376604,10.793835683281593]},"properties":{"height":12,"radius":4.2,"seed":1836,"representation":"illustrative-planting","parkId":"marlow-green"}},{"type":"Feature","id":"tree-109","geometry":{"type":"Point","coordinates":[106.71118827154812,10.793570920687381]},"properties":{"height":14,"radius":4.7,"seed":1853,"representation":"illustrative-planting","parkId":"marlow-green"}},{"type":"Feature","id":"tree-110","geometry":{"type":"Point","coordinates":[106.70869715390353,10.785840771467862]},"properties":{"height":14,"radius":5.2,"seed":1870,"representation":"illustrative-planting","parkId":"marlow-green"}},{"type":"Feature","id":"tree-111","geometry":{"type":"Point","coordinates":[106.70841549935881,10.785776805966593]},"properties":{"height":13,"radius":5.7,"seed":1887,"representation":"illustrative-planting","parkId":"marlow-green"}},{"type":"Feature","id":"tree-112","geometry":{"type":"Point","coordinates":[106.70859706629794,10.785962446440305]},"properties":{"height":15,"radius":4.2,"seed":1904,"representation":"illustrative-planting","parkId":"marlow-green"}},{"type":"Feature","id":"tree-113","geometry":{"type":"Point","coordinates":[106.70877336270604,10.785726353049869]},"properties":{"height":14,"radius":4.7,"seed":1921,"representation":"illustrative-planting","parkId":"marlow-green"}},{"type":"Feature","id":"tree-114","geometry":{"type":"Point","coordinates":[106.70820759043478,10.785868688330126]},"properties":{"height":13,"radius":5.2,"seed":1938,"representation":"illustrative-planting","parkId":"marlow-green"}},{"type":"Feature","id":"tree-115","geometry":{"type":"Point","coordinates":[106.70891863983019,10.785938727480037]},"properties":{"height":15,"radius":5.7,"seed":1955,"representation":"illustrative-planting","parkId":"marlow-green"}},{"type":"Feature","id":"tree-116","geometry":{"type":"Point","coordinates":[106.70846006783972,10.7856503141788]},"properties":{"height":14,"radius":4.2,"seed":1972,"representation":"illustrative-planting","parkId":"marlow-green"}},{"type":"Feature","id":"tree-117","geometry":{"type":"Point","coordinates":[106.70834964233407,10.786027824621584]},"properties":{"height":13,"radius":4.7,"seed":1989,"representation":"illustrative-planting","parkId":"marlow-green"}},{"type":"Feature","id":"tree-118","geometry":{"type":"Point","coordinates":[106.70905400665764,10.78576515743076]},"properties":{"height":15,"radius":5.2,"seed":2006,"representation":"illustrative-planting","parkId":"marlow-green"}},{"type":"Feature","id":"tree-119","geometry":{"type":"Point","coordinates":[106.70807661210625,10.785748033906346]},"properties":{"height":14,"radius":5.7,"seed":2023,"representation":"illustrative-planting","parkId":"marlow-green"}},{"type":"Feature","id":"tree-120","geometry":{"type":"Point","coordinates":[106.70880880395441,10.786068466315461]},"properties":{"height":13,"radius":4.2,"seed":2040,"representation":"illustrative-planting","parkId":"marlow-green"}},{"type":"Feature","id":"tree-121","geometry":{"type":"Point","coordinates":[106.70875701314034,10.785591698369029]},"properties":{"height":15,"radius":4.7,"seed":2057,"representation":"illustrative-planting","parkId":"marlow-green"}},{"type":"Feature","id":"tree-122","geometry":{"type":"Point","coordinates":[106.70803451487443,10.785974952612577]},"properties":{"height":14,"radius":5.2,"seed":2074,"representation":"illustrative-planting","parkId":"marlow-green"}},{"type":"Feature","id":"tree-123","geometry":{"type":"Point","coordinates":[106.71061720527454,10.785750938683494]},"properties":{"height":10,"radius":5.7,"seed":2091,"representation":"illustrative-planting","parkId":"marlow-green"}},{"type":"Feature","id":"tree-124","geometry":{"type":"Point","coordinates":[106.71037800659145,10.78567782809929]},"properties":{"height":12,"radius":4.2,"seed":2108,"representation":"illustrative-planting","parkId":"marlow-green"}},{"type":"Feature","id":"tree-125","geometry":{"type":"Point","coordinates":[106.71053220461009,10.785890009397388]},"properties":{"height":14,"radius":4.7,"seed":2125,"representation":"illustrative-planting","parkId":"marlow-green"}},{"type":"Feature","id":"tree-126","geometry":{"type":"Point","coordinates":[106.71068192656358,10.785620161978587]},"properties":{"height":10,"radius":5.2,"seed":2142,"representation":"illustrative-planting","parkId":"marlow-green"}},{"type":"Feature","id":"tree-127","geometry":{"type":"Point","coordinates":[106.71020143730912,10.785782846790573]},"properties":{"height":12,"radius":5.7,"seed":2159,"representation":"illustrative-planting","parkId":"marlow-green"}},{"type":"Feature","id":"tree-128","geometry":{"type":"Point","coordinates":[106.71080530499803,10.785862899363192]},"properties":{"height":14,"radius":4.2,"seed":2176,"representation":"illustrative-planting","parkId":"marlow-green"}},{"type":"Feature","id":"tree-129","geometry":{"type":"Point","coordinates":[106.71041585693736,10.785533251902159]},"properties":{"height":10,"radius":4.7,"seed":2193,"representation":"illustrative-planting","parkId":"marlow-green"}},{"type":"Feature","id":"tree-130","geometry":{"type":"Point","coordinates":[106.71406030632096,10.791976287128987]},"properties":{"height":11,"radius":5.2,"seed":2210,"representation":"illustrative-planting","parkId":"marlow-green"}},{"type":"Feature","id":"tree-131","geometry":{"type":"Point","coordinates":[106.71410603049124,10.791715777296359]},"properties":{"height":12,"radius":5.7,"seed":2227,"representation":"illustrative-planting","parkId":"marlow-green"}},{"type":"Feature","id":"tree-132","geometry":{"type":"Point","coordinates":[106.71416089949557,10.791302554340138]},"properties":{"height":10,"radius":4.2,"seed":2244,"representation":"illustrative-planting","parkId":"marlow-green"}},{"type":"Feature","id":"tree-133","geometry":{"type":"Point","coordinates":[106.71418833399774,10.790817465797147]},"properties":{"height":11,"radius":4.7,"seed":2261,"representation":"illustrative-planting","parkId":"marlow-green"}},{"type":"Feature","id":"tree-134","geometry":{"type":"Point","coordinates":[106.71409688565718,10.789865252677188]},"properties":{"height":12,"radius":5.2,"seed":2278,"representation":"illustrative-planting","parkId":"marlow-green"}},{"type":"Feature","id":"tree-135","geometry":{"type":"Point","coordinates":[106.71419747883179,10.78937117864351]},"properties":{"height":10,"radius":5.7,"seed":2295,"representation":"illustrative-planting","parkId":"marlow-green"}},{"type":"Feature","id":"tree-136","geometry":{"type":"Point","coordinates":[106.71432550650859,10.788841171050207]},"properties":{"height":11,"radius":4.2,"seed":2312,"representation":"illustrative-planting","parkId":"marlow-green"}},{"type":"Feature","id":"tree-137","geometry":{"type":"Point","coordinates":[106.71438037551292,10.788517776127545]},"properties":{"height":12,"radius":4.7,"seed":2329,"representation":"illustrative-planting","parkId":"marlow-green"}},{"type":"Feature","id":"tree-138","geometry":{"type":"Point","coordinates":[106.71438952034698,10.787915901317644]},"properties":{"height":10,"radius":5.2,"seed":2346,"representation":"illustrative-planting","parkId":"marlow-green"}}]}