{"type":"FeatureCollection","features":[{"type":"Feature","id":"village-green","properties":{"category":"park"},"geometry":{"type":"Polygon","coordinates":[[[106.70782352949462,10.790556954960255],[106.70825333669525,10.790799499539792],[106.70888433024514,10.790727634499584],[106.70934157194795,10.790467123584843],[106.70918610976899,10.790116780964267],[106.70863741972562,10.789685589486162],[106.70813445385252,10.789775421095095],[106.70782352949462,10.790556954960255]]]}},{"type":"Feature","id":"orchard-meadow","properties":{"category":"park"},"geometry":{"type":"Polygon","coordinates":[[[106.70490632743068,10.789335245954849],[106.70564705898923,10.78908371701393],[106.70607686618987,10.788625574473754],[106.70654325272675,10.787996750242755],[106.70654325272675,10.787493689911138],[106.70582995567035,10.787637421520332],[106.70519896212048,10.788140481611494],[106.70490632743068,10.789335245954849]]]}},{"type":"Feature","id":"north-meadow","properties":{"category":"garden"},"geometry":{"type":"Polygon","coordinates":[[[106.70792412266923,10.794114255845711],[106.70894834408352,10.794231035211507],[106.71075902122666,10.793853747866173],[106.71155462178955,10.793323748176286],[106.71135343544032,10.793099171754573],[106.70946045479067,10.793189002343391],[106.70835392986987,10.793072222572688],[106.70769550181782,10.79334171428276],[106.70792412266923,10.794114255845711]]]}},{"type":"Feature","id":"river-meadow","properties":{"category":"garden"},"geometry":{"type":"Polygon","coordinates":[[[106.71394142347822,10.792784764482262],[106.71413346499341,10.792784764482262],[106.71437123067886,10.790853398308652],[106.71428892717236,10.78964067367164],[106.71459070669621,10.787933867747336],[106.71447182385349,10.78743080731052],[106.71416089949557,10.787475723455172],[106.71386826480577,10.789407111327899],[106.71394142347822,10.792784764482262]]]}},{"type":"Feature","id":"western-wood","properties":{"category":"park"},"geometry":{"type":"Polygon","coordinates":[[[106.70280301559775,10.79345849394875],[106.7037540783396,10.793503409192827],[106.70459540307277,10.793997476434532],[106.70586653500658,10.793862730903706],[106.70664384590137,10.793314765122645],[106.70574765216385,10.793072222572688],[106.70454053406843,10.793018324201674],[106.70379065767582,10.792102050415671],[106.7032511124665,10.791104925768964],[106.70280301559775,10.79345849394875]]]}},{"type":"Feature","id":"southern-meadow","properties":{"category":"garden"},"geometry":{"type":"Polygon","coordinates":[[[106.7069273357571,10.786298918250793],[106.70851853688289,10.7865414662651],[106.70954275829719,10.786209085603266],[106.71106080075052,10.786361801088093],[106.71186554614746,10.785849754744838],[106.71149060795116,10.785283807772238],[106.70944216512257,10.785050242044544],[106.707887543333,10.78531974094501],[106.7069273357571,10.786298918250793]]]}},{"type":"Feature","id":"west-cottage-a-garden","properties":{"category":"garden"},"geometry":{"type":"Polygon","coordinates":[[[106.70572479007872,10.793027307264197],[106.70604485927068,10.793027307264197],[106.70604485927068,10.792703916844792],[106.70572479007872,10.792703916844792],[106.70572479007872,10.793027307264197]]]}},{"type":"Feature","id":"west-cottage-b-garden","properties":{"category":"garden"},"geometry":{"type":"Polygon","coordinates":[[[106.70617288694747,10.793036290326429],[106.70647466647132,10.793036290326429],[106.70647466647132,10.7927308660597],[106.70617288694747,10.7927308660597],[106.70617288694747,10.793036290326429]]]}},{"type":"Feature","id":"west-cottage-c-garden","properties":{"category":"garden"},"geometry":{"type":"Polygon","coordinates":[[[106.70662098381622,10.793036290326429],[106.70697763234442,10.793036290326429],[106.70697763234442,10.792694933772625],[106.70662098381622,10.792694933772625],[106.70662098381622,10.793036290326429]]]}},{"type":"Feature","id":"west-cottage-d-garden","properties":{"category":"garden"},"geometry":{"type":"Polygon","coordinates":[[[106.70730227395342,10.793373154966549],[106.70761319831132,10.793373154966549],[106.70761319831132,10.793058747980853],[106.70730227395342,10.793058747980853],[106.70730227395342,10.793373154966549]]]}},{"type":"Feature","id":"west-cottage-e-garden","properties":{"category":"garden"},"geometry":{"type":"Polygon","coordinates":[[[106.70787839849895,10.793606714228716],[106.70820761252497,10.793606714228716],[106.70820761252497,10.7932563752674],[106.70787839849895,10.7932563752674],[106.70787839849895,10.793606714228716]]]}},{"type":"Feature","id":"west-cottage-f-garden","properties":{"category":"garden"},"geometry":{"type":"Polygon","coordinates":[[[106.70564705898923,10.792182898215012],[106.70599456268337,10.792182898215012],[106.70599456268337,10.791841540692037],[106.70564705898923,10.791841540692037],[106.70564705898923,10.792182898215012]]]}},{"type":"Feature","id":"west-cottage-g-garden","properties":{"category":"garden"},"geometry":{"type":"Polygon","coordinates":[[[106.70627348012209,10.792178406671178],[106.70659354931405,10.792178406671178],[106.70659354931405,10.79186399843571],[106.70627348012209,10.79186399843571],[106.70627348012209,10.792178406671178]]]}},{"type":"Feature","id":"village-bakery-garden","properties":{"category":"garden"},"geometry":{"type":"Polygon","coordinates":[[[106.7079515571714,10.789164565625034],[106.70829906086554,10.789164565625034],[106.70829906086554,10.788823204674733],[106.7079515571714,10.788823204674733],[106.7079515571714,10.789164565625034]]]}},{"type":"Feature","id":"village-grocer-garden","properties":{"category":"garden"},"geometry":{"type":"Polygon","coordinates":[[[106.70842708854232,10.78911066655338],[106.70875630256835,10.78911066655338],[106.70875630256835,10.788787271920581],[106.70842708854232,10.788787271920581],[106.70842708854232,10.78911066655338]]]}},{"type":"Feature","id":"village-cafe-garden","properties":{"category":"garden"},"geometry":{"type":"Polygon","coordinates":[[[106.70887061299405,10.78917804039145],[106.7091723925179,10.78917804039145],[106.7091723925179,10.788863629018035],[106.70887061299405,10.788863629018035],[106.70887061299405,10.78917804039145]]]}},{"type":"Feature","id":"south-cottage-a-garden","properties":{"category":"garden"},"geometry":{"type":"Polygon","coordinates":[[[106.70778237774137,10.787821577544221],[106.70812073660144,10.787821577544221],[106.70812073660144,10.78748919829725],[106.70778237774137,10.78748919829725],[106.70778237774137,10.787821577544221]]]}},{"type":"Feature","id":"south-cottage-b-garden","properties":{"category":"garden"},"geometry":{"type":"Polygon","coordinates":[[[106.70838593678907,10.78771377890978],[106.70870600598104,10.78771377890978],[106.70870600598104,10.787399366005276],[106.70838593678907,10.787399366005276],[106.70838593678907,10.78771377890978]]]}},{"type":"Feature","id":"south-cottage-c-garden","properties":{"category":"garden"},"geometry":{"type":"Polygon","coordinates":[[[106.70893005441542,10.787812594326148],[106.70927755810955,10.787812594326148],[106.70927755810955,10.787462248612474],[106.70893005441542,10.787462248612474],[106.70893005441542,10.787812594326148]]]}},{"type":"Feature","id":"south-cottage-d-garden","properties":{"category":"garden"},"geometry":{"type":"Polygon","coordinates":[[[106.70818932285687,10.786909779542357],[106.70850024721477,10.786909779542357],[106.70850024721477,10.786586382542565],[106.70818932285687,10.786586382542565],[106.70818932285687,10.786909779542357]]]}},{"type":"Feature","id":"north-cottage-a-garden","properties":{"category":"garden"},"geometry":{"type":"Polygon","coordinates":[[[106.70926384085847,10.793701036186981],[106.70958391005044,10.793701036186981],[106.70958391005044,10.793359680388182],[106.70926384085847,10.793359680388182],[106.70926384085847,10.793701036186981]]]}},{"type":"Feature","id":"north-cottage-b-garden","properties":{"category":"garden"},"geometry":{"type":"Polygon","coordinates":[[[106.70970279289317,10.793575273569385],[106.71005944142136,10.793575273569385],[106.71005944142136,10.793251883739588],[106.70970279289317,10.793251883739588],[106.70970279289317,10.793575273569385]]]}},{"type":"Feature","id":"quay-cottage-garden","properties":{"category":"garden"},"geometry":{"type":"Polygon","coordinates":[[[106.71299950557044,10.786936729276645],[106.71332871959646,10.786936729276645],[106.71332871959646,10.78661333230583],[106.71299950557044,10.78661333230583],[106.71299950557044,10.786936729276645]]]}},{"type":"Feature","id":"quay-cafe-garden","properties":{"category":"garden"},"geometry":{"type":"Polygon","coordinates":[[[106.71339273343484,10.786900796297065],[106.7137585267971,10.786900796297065],[106.7137585267971,10.786559432776881],[106.71339273343484,10.786559432776881],[106.71339273343484,10.786900796297065]]]}},{"type":"Feature","id":"riverside-shop-garden","properties":{"category":"garden"},"geometry":{"type":"Polygon","coordinates":[[[106.71314582291534,10.790750092326494],[106.71349332660947,10.790750092326494],[106.71349332660947,10.790417716316922],[106.71314582291534,10.790417716316922],[106.71314582291534,10.790750092326494]]]}},{"type":"Feature","id":"site-dorian","properties":{"category":"garden"},"geometry":{"type":"Polygon","coordinates":[[[106.70725654978312,10.791621454715086],[106.70771379148594,10.791621454715086],[106.70771379148594,10.791199248512317],[106.70725654978312,10.791199248512317],[106.70725654978312,10.791621454715086]]]}},{"type":"Feature","id":"site-mira","properties":{"category":"garden"},"geometry":{"type":"Polygon","coordinates":[[[106.70981710331887,10.791621454715086],[106.71027434502167,10.791621454715086],[106.71027434502167,10.791199248512317],[106.70981710331887,10.791199248512317],[106.70981710331887,10.791621454715086]]]}},{"type":"Feature","id":"site-tomas","properties":{"category":"garden"},"geometry":{"type":"Polygon","coordinates":[[[106.70725654978312,10.78870193161225],[106.70771379148594,10.78870193161225],[106.70771379148594,10.788279721309443],[106.70725654978312,10.788279721309443],[106.70725654978312,10.78870193161225]]]}},{"type":"Feature","id":"site-marketplace","properties":{"category":"plaza"},"geometry":{"type":"Polygon","coordinates":[[[106.70974394464642,10.7887378643766],[106.71034750369412,10.7887378643766],[106.71034750369412,10.788243788490325],[106.70974394464642,10.788243788490325],[106.70974394464642,10.7887378643766]]]}},{"type":"Feature","id":"site-sable","properties":{"category":"garden"},"geometry":{"type":"Polygon","coordinates":[[[106.71233193268432,10.78870193161225],[106.71278917438714,10.78870193161225],[106.71278917438714,10.788279721309443],[106.71233193268432,10.788279721309443],[106.71233193268432,10.78870193161225]]]}},{"type":"Feature","id":"site-bank","properties":{"category":"plaza"},"geometry":{"type":"Polygon","coordinates":[[[106.71225877401187,10.791657387130485],[106.71286233305959,10.791657387130485],[106.71286233305959,10.791163316042153],[106.71225877401187,10.791163316042153],[106.71225877401187,10.791657387130485]]]}}]}