{"type":"FeatureCollection","features":[{"type":"Feature","id":"high-street","properties":{"class":"secondary","bridge":false,"layer":0},"geometry":{"type":"LineString","coordinates":[[106.70341571947952,10.789964067386506],[106.70497034126907,10.789928134768703],[106.70629634220722,10.789874235833938],[106.70725654978312,10.790179663003148],[106.70791497783517,10.78958677468534],[106.70862827489157,10.789416094498312],[106.70939644095229,10.789595757850385],[106.71009144834055,10.790134747262439],[106.71128027676787,10.790179663003148],[106.71384083030361,10.790179663003148]]}},{"type":"Feature","id":"north-lane","properties":{"class":"residential","bridge":false,"layer":0},"geometry":{"type":"LineString","coordinates":[[106.70387296118233,10.792200864389706],[106.70506178960964,10.792290695247004],[106.70606772135582,10.792452390722499],[106.70689075642088,10.792470356881061],[106.70798813650762,10.793054256450105],[106.70963420663774,10.793054256450105],[106.71141744927871,10.792964425820994],[106.71384083030361,10.792964425820994]]}},{"type":"Feature","id":"south-lane","properties":{"class":"residential","bridge":false,"layer":0},"geometry":{"type":"LineString","coordinates":[[106.70474172041767,10.787394874389976],[106.70625061803695,10.787170293539278],[106.70871972323212,10.787170293539278],[106.71128027676787,10.787170293539278],[106.71379510613332,10.787170293539278]]}},{"type":"Feature","id":"west-lane","properties":{"class":"residential","bridge":false,"layer":0},"geometry":{"type":"LineString","coordinates":[[106.70350716782008,10.793144087052346],[106.7041930303743,10.791482216564813],[106.70460454790683,10.789937117923552],[106.70497034126907,10.78892201972653],[106.70474172041767,10.787394874389976],[106.70524468629077,10.786137219465935]]}},{"type":"Feature","id":"quay-lane","properties":{"class":"living_street","bridge":false,"layer":0},"geometry":{"type":"LineString","coordinates":[[106.71384083030361,10.794222052184987],[106.71384083030361,10.792964425820994],[106.7137585267971,10.791572047636883],[106.71384083030361,10.790179663003148],[106.71393227864417,10.788562692109815],[106.71379510613332,10.787170293539278],[106.71402372698473,10.786002470412127]]}},{"type":"Feature","id":"riverside-walk","properties":{"class":"pedestrian","bridge":false,"layer":0},"geometry":{"type":"LineString","coordinates":[[106.71408774082312,10.79556950316326],[106.71402372698473,10.793144087052346],[106.71425234783614,10.790988145188567],[106.71416089949557,10.789550842022425],[106.71442609968321,10.787574538949766],[106.71449925835564,10.785328724237546]]}},{"type":"Feature","id":"green-path","properties":{"class":"footway","bridge":false,"layer":0},"geometry":{"type":"LineString","coordinates":[[106.70743944646425,10.790179663003148],[106.70789668816707,10.790512039275916],[106.7086831438959,10.790628820041265],[106.70939644095229,10.790386275324021],[106.71007315867244,10.790134747262439]]}},{"type":"Feature","id":"orchard-path","properties":{"class":"footway","bridge":false,"layer":0},"geometry":{"type":"LineString","coordinates":[[106.70497034126907,10.78892201972653],[106.70572021766168,10.788562692109815],[106.706259762871,10.788131498402945],[106.70657068722892,10.787484706683292],[106.70652496305863,10.787170293539278]]}},{"type":"Feature","id":"river-road","properties":{"class":"residential","bridge":false,"layer":0},"geometry":{"type":"LineString","coordinates":[[106.71576124545541,10.796647459595437],[106.71552347976994,10.79359323966082],[106.71585269379597,10.790000000000013],[106.71618190782199,10.786406717392412],[106.71591670763436,10.7833523934192]]}},{"type":"Feature","id":"river-bridge--330","properties":{"class":"residential","bridge":true,"layer":1},"geometry":{"type":"LineString","coordinates":[[106.71379510613332,10.792964425820994],[106.71585269379597,10.792964425820994]]}},{"type":"Feature","id":"river-bridge-315","properties":{"class":"residential","bridge":true,"layer":1},"geometry":{"type":"LineString","coordinates":[[106.71379510613332,10.787170293539278],[106.71585269379597,10.787170293539278]]}},{"type":"Feature","id":"west-cottage-a-path","properties":{"class":"footway","bridge":false,"layer":0},"geometry":{"type":"LineString","coordinates":[[106.7058848246747,10.792717391452557],[106.7058848246747,10.792425441482623]]}},{"type":"Feature","id":"west-cottage-b-path","properties":{"class":"footway","bridge":false,"layer":0},"geometry":{"type":"LineString","coordinates":[[106.7063237767094,10.792744340666255],[106.7063237767094,10.792461373801915]]}},{"type":"Feature","id":"west-cottage-c-path","properties":{"class":"footway","bridge":false,"layer":0},"geometry":{"type":"LineString","coordinates":[[106.70679930808032,10.792708408380792],[106.70679930808032,10.792470356881061]]}},{"type":"Feature","id":"west-cottage-d-path","properties":{"class":"footway","bridge":false,"layer":0},"geometry":{"type":"LineString","coordinates":[[106.70745773613237,10.793072222572688],[106.70745773613237,10.792775781412514]]}},{"type":"Feature","id":"west-cottage-e-path","properties":{"class":"footway","bridge":false,"layer":0},"geometry":{"type":"LineString","coordinates":[[106.70804300551197,10.793269849850377],[106.70804300551197,10.793054256450105]]}},{"type":"Feature","id":"west-cottage-f-path","properties":{"class":"footway","bridge":false,"layer":0},"geometry":{"type":"LineString","coordinates":[[106.7058208108363,10.792169423583307],[106.7058208108363,10.79240747532136]]}},{"type":"Feature","id":"west-cottage-g-path","properties":{"class":"footway","bridge":false,"layer":0},"geometry":{"type":"LineString","coordinates":[[106.70643351471807,10.79216493203927],[106.70643351471807,10.792470356881061]]}},{"type":"Feature","id":"village-bakery-path","properties":{"class":"footway","bridge":false,"layer":0},"geometry":{"type":"LineString","coordinates":[[106.70812530901847,10.789151090858038],[106.70812530901847,10.789532875689376]]}},{"type":"Feature","id":"village-grocer-path","properties":{"class":"footway","bridge":false,"layer":0},"geometry":{"type":"LineString","coordinates":[[106.70859169555534,10.789097191783968],[106.70859169555534,10.789425077668463]]}},{"type":"Feature","id":"village-cafe-path","properties":{"class":"footway","bridge":false,"layer":0},"geometry":{"type":"LineString","coordinates":[[106.70902150275597,10.789164565625034],[106.70902150275597,10.789505926187772]]}},{"type":"Feature","id":"south-cottage-a-path","properties":{"class":"footway","bridge":false,"layer":0},"geometry":{"type":"LineString","coordinates":[[106.7079515571714,10.787502673138741],[106.7079515571714,10.787170293539278]]}},{"type":"Feature","id":"south-cottage-b-path","properties":{"class":"footway","bridge":false,"layer":0},"geometry":{"type":"LineString","coordinates":[[106.70854597138505,10.787412840850793],[106.70854597138505,10.787170293539278]]}},{"type":"Feature","id":"south-cottage-c-path","properties":{"class":"footway","bridge":false,"layer":0},"geometry":{"type":"LineString","coordinates":[[106.70910380626249,10.787475723455172],[106.70910380626249,10.787170293539278]]}},{"type":"Feature","id":"south-cottage-d-path","properties":{"class":"footway","bridge":false,"layer":0},"geometry":{"type":"LineString","coordinates":[[106.70834478503582,10.786896304674316],[106.70834478503582,10.787170293539278]]}},{"type":"Feature","id":"north-cottage-a-path","properties":{"class":"footway","bridge":false,"layer":0},"geometry":{"type":"LineString","coordinates":[[106.70942387545445,10.793373154966549],[106.70942387545445,10.793054256450105]]}},{"type":"Feature","id":"north-cottage-b-path","properties":{"class":"footway","bridge":false,"layer":0},"geometry":{"type":"LineString","coordinates":[[106.70988111715727,10.793265358322786],[106.70988111715727,10.79304527338839]]}},{"type":"Feature","id":"quay-cottage-path","properties":{"class":"footway","bridge":false,"layer":0},"geometry":{"type":"LineString","coordinates":[[106.71316411258344,10.78692325440981],[106.71316411258344,10.787170293539278]]}},{"type":"Feature","id":"quay-cafe-path","properties":{"class":"footway","bridge":false,"layer":0},"geometry":{"type":"LineString","coordinates":[[106.71357563011597,10.786887321428605],[106.71357563011597,10.787170293539278]]}},{"type":"Feature","id":"riverside-shop-path","properties":{"class":"footway","bridge":false,"layer":0},"geometry":{"type":"LineString","coordinates":[[106.7133195747624,10.79043119102717],[106.7133195747624,10.790179663003148]]}},{"type":"Feature","id":"drive-dorian","properties":{"class":"pedestrian","bridge":false,"layer":0},"geometry":{"type":"LineString","coordinates":[[106.70748517063454,10.791383402354535],[106.70748517063454,10.789991016847043]]}},{"type":"Feature","id":"drive-mira","properties":{"class":"pedestrian","bridge":false,"layer":0},"geometry":{"type":"LineString","coordinates":[[106.71004572417027,10.791383402354535],[106.71004572417027,10.790098814665019]]}},{"type":"Feature","id":"drive-tomas","properties":{"class":"pedestrian","bridge":false,"layer":0},"geometry":{"type":"LineString","coordinates":[[106.70748517063454,10.78846387693995],[106.70748517063454,10.787170293539278]]}},{"type":"Feature","id":"drive-marketplace","properties":{"class":"pedestrian","bridge":false,"layer":0},"geometry":{"type":"LineString","coordinates":[[106.71004572417027,10.78846387693995],[106.71004572417027,10.787170293539278]]}},{"type":"Feature","id":"drive-sable","properties":{"class":"pedestrian","bridge":false,"layer":0},"geometry":{"type":"LineString","coordinates":[[106.71256055353574,10.78846387693995],[106.71256055353574,10.787170293539278]]}},{"type":"Feature","id":"drive-bank","properties":{"class":"pedestrian","bridge":false,"layer":0},"geometry":{"type":"LineString","coordinates":[[106.71256055353574,10.791383402354535],[106.71256055353574,10.790179663003148]]}}]}