{"type":"FeatureCollection","features":[{"type":"Feature","id":"green-river","properties":{"natural":"water","water":"river","name":"Green River"},"geometry":{"type":"Polygon","coordinates":[[[106.71416089949557,10.79763558292745],[106.71429807200641,10.795838992633868],[106.71411517532529,10.79359323966082],[106.71443524451726,10.791077976408284],[106.71438952034698,10.78964067367164],[106.71466386536866,10.787754203402216],[106.71475531370922,10.78550839003167],[106.7145724170281,10.782364223140974],[106.71553262460401,10.782364223140974],[106.71571552128513,10.78550839003167],[106.71557834877429,10.787754203402216],[106.71530400375259,10.78964067367164],[106.71534972792288,10.791077976408284],[106.71502965873091,10.79359323966082],[106.71521255541204,10.795838992633868],[106.71507538290119,10.79763558292745],[106.71416089949557,10.79763558292745]]]}}]}